{
  "type": "FeatureCollection",
  "features": [
    {
      "type": "Feature",
      "properties": {
        "id": "rp-r1c1",
        "row": 1,
        "col": 1,
        "buildingCount": 243,
        "heightQuality": {
          "height": 0,
          "levels": 31,
          "estimated": 211,
          "podium": 1
        },
        "proxy": "ready",
        "realityMesh": "missing",
        "terrain": "flat_proxy"
      },
      "geometry": {
        "type": "Polygon",
        "coordinates": [
          [
            [
              106.6978,
              10.7675
            ],
            [
              106.700525,
              10.7675
            ],
            [
              106.700525,
              10.7707
            ],
            [
              106.6978,
              10.7707
            ],
            [
              106.6978,
              10.7675
            ]
          ]
        ]
      }
    },
    {
      "type": "Feature",
      "properties": {
        "id": "rp-r1c2",
        "row": 1,
        "col": 2,
        "buildingCount": 245,
        "heightQuality": {
          "height": 0,
          "levels": 30,
          "estimated": 208,
          "podium": 7
        },
        "proxy": "ready",
        "realityMesh": "missing",
        "terrain": "flat_proxy"
      },
      "geometry": {
        "type": "Polygon",
        "coordinates": [
          [
            [
              106.700525,
              10.7675
            ],
            [
              106.70325,
              10.7675
            ],
            [
              106.70325,
              10.7707
            ],
            [
              106.700525,
              10.7707
            ],
            [
              106.700525,
              10.7675
            ]
          ]
        ]
      }
    },
    {
      "type": "Feature",
      "properties": {
        "id": "rp-r1c3",
        "row": 1,
        "col": 3,
        "buildingCount": 63,
        "heightQuality": {
          "height": 1,
          "levels": 4,
          "estimated": 58,
          "podium": 0
        },
        "proxy": "ready",
        "realityMesh": "missing",
        "terrain": "flat_proxy"
      },
      "geometry": {
        "type": "Polygon",
        "coordinates": [
          [
            [
              106.70325,
              10.7675
            ],
            [
              106.705975,
              10.7675
            ],
            [
              106.705975,
              10.7707
            ],
            [
              106.70325,
              10.7707
            ],
            [
              106.70325,
              10.7675
            ]
          ]
        ]
      }
    },
    {
      "type": "Feature",
      "properties": {
        "id": "rp-r1c4",
        "row": 1,
        "col": 4,
        "buildingCount": 16,
        "heightQuality": {
          "height": 1,
          "levels": 0,
          "estimated": 15,
          "podium": 0
        },
        "proxy": "ready",
        "realityMesh": "missing",
        "terrain": "flat_proxy"
      },
      "geometry": {
        "type": "Polygon",
        "coordinates": [
          [
            [
              106.705975,
              10.7675
            ],
            [
              106.7087,
              10.7675
            ],
            [
              106.7087,
              10.7707
            ],
            [
              106.705975,
              10.7707
            ],
            [
              106.705975,
              10.7675
            ]
          ]
        ]
      }
    },
    {
      "type": "Feature",
      "properties": {
        "id": "rp-r2c1",
        "row": 2,
        "col": 1,
        "buildingCount": 163,
        "heightQuality": {
          "height": 0,
          "levels": 26,
          "estimated": 137,
          "podium": 0
        },
        "proxy": "ready",
        "realityMesh": "missing",
        "terrain": "flat_proxy"
      },
      "geometry": {
        "type": "Polygon",
        "coordinates": [
          [
            [
              106.6978,
              10.7707
            ],
            [
              106.700525,
              10.7707
            ],
            [
              106.700525,
              10.773900000000001
            ],
            [
              106.6978,
              10.773900000000001
            ],
            [
              106.6978,
              10.7707
            ]
          ]
        ]
      }
    },
    {
      "type": "Feature",
      "properties": {
        "id": "rp-r2c2",
        "row": 2,
        "col": 2,
        "buildingCount": 220,
        "heightQuality": {
          "height": 3,
          "levels": 12,
          "estimated": 201,
          "podium": 4
        },
        "proxy": "ready",
        "realityMesh": "missing",
        "terrain": "flat_proxy"
      },
      "geometry": {
        "type": "Polygon",
        "coordinates": [
          [
            [
              106.700525,
              10.7707
            ],
            [
              106.70325,
              10.7707
            ],
            [
              106.70325,
              10.773900000000001
            ],
            [
              106.700525,
              10.773900000000001
            ],
            [
              106.700525,
              10.7707
            ]
          ]
        ]
      }
    },
    {
      "type": "Feature",
      "properties": {
        "id": "rp-r2c3",
        "row": 2,
        "col": 3,
        "buildingCount": 193,
        "heightQuality": {
          "height": 13,
          "levels": 9,
          "estimated": 168,
          "podium": 3
        },
        "proxy": "ready",
        "realityMesh": "missing",
        "terrain": "flat_proxy"
      },
      "geometry": {
        "type": "Polygon",
        "coordinates": [
          [
            [
              106.70325,
              10.7707
            ],
            [
              106.705975,
              10.7707
            ],
            [
              106.705975,
              10.773900000000001
            ],
            [
              106.70325,
              10.773900000000001
            ],
            [
              106.70325,
              10.7707
            ]
          ]
        ]
      }
    },
    {
      "type": "Feature",
      "properties": {
        "id": "rp-r2c4",
        "row": 2,
        "col": 4,
        "buildingCount": 5,
        "heightQuality": {
          "height": 2,
          "levels": 0,
          "estimated": 3,
          "podium": 0
        },
        "proxy": "ready",
        "realityMesh": "missing",
        "terrain": "flat_proxy"
      },
      "geometry": {
        "type": "Polygon",
        "coordinates": [
          [
            [
              106.705975,
              10.7707
            ],
            [
              106.7087,
              10.7707
            ],
            [
              106.7087,
              10.773900000000001
            ],
            [
              106.705975,
              10.773900000000001
            ],
            [
              106.705975,
              10.7707
            ]
          ]
        ]
      }
    },
    {
      "type": "Feature",
      "properties": {
        "id": "rp-r3c1",
        "row": 3,
        "col": 1,
        "buildingCount": 170,
        "heightQuality": {
          "height": 9,
          "levels": 2,
          "estimated": 159,
          "podium": 0
        },
        "proxy": "ready",
        "realityMesh": "missing",
        "terrain": "flat_proxy"
      },
      "geometry": {
        "type": "Polygon",
        "coordinates": [
          [
            [
              106.6978,
              10.773900000000001
            ],
            [
              106.700525,
              10.773900000000001
            ],
            [
              106.700525,
              10.7771
            ],
            [
              106.6978,
              10.7771
            ],
            [
              106.6978,
              10.773900000000001
            ]
          ]
        ]
      }
    },
    {
      "type": "Feature",
      "properties": {
        "id": "rp-r3c2",
        "row": 3,
        "col": 2,
        "buildingCount": 75,
        "heightQuality": {
          "height": 1,
          "levels": 3,
          "estimated": 71,
          "podium": 0
        },
        "proxy": "ready",
        "realityMesh": "missing",
        "terrain": "flat_proxy"
      },
      "geometry": {
        "type": "Polygon",
        "coordinates": [
          [
            [
              106.700525,
              10.773900000000001
            ],
            [
              106.70325,
              10.773900000000001
            ],
            [
              106.70325,
              10.7771
            ],
            [
              106.700525,
              10.7771
            ],
            [
              106.700525,
              10.773900000000001
            ]
          ]
        ]
      }
    },
    {
      "type": "Feature",
      "properties": {
        "id": "rp-r3c3",
        "row": 3,
        "col": 3,
        "buildingCount": 132,
        "heightQuality": {
          "height": 7,
          "levels": 3,
          "estimated": 121,
          "podium": 1
        },
        "proxy": "ready",
        "realityMesh": "missing",
        "terrain": "flat_proxy"
      },
      "geometry": {
        "type": "Polygon",
        "coordinates": [
          [
            [
              106.70325,
              10.773900000000001
            ],
            [
              106.705975,
              10.773900000000001
            ],
            [
              106.705975,
              10.7771
            ],
            [
              106.70325,
              10.7771
            ],
            [
              106.70325,
              10.773900000000001
            ]
          ]
        ]
      }
    },
    {
      "type": "Feature",
      "properties": {
        "id": "rp-r3c4",
        "row": 3,
        "col": 4,
        "buildingCount": 33,
        "heightQuality": {
          "height": 2,
          "levels": 5,
          "estimated": 24,
          "podium": 2
        },
        "proxy": "ready",
        "realityMesh": "missing",
        "terrain": "flat_proxy"
      },
      "geometry": {
        "type": "Polygon",
        "coordinates": [
          [
            [
              106.705975,
              10.773900000000001
            ],
            [
              106.7087,
              10.773900000000001
            ],
            [
              106.7087,
              10.7771
            ],
            [
              106.705975,
              10.7771
            ],
            [
              106.705975,
              10.773900000000001
            ]
          ]
        ]
      }
    },
    {
      "type": "Feature",
      "properties": {
        "id": "rp-r4c1",
        "row": 4,
        "col": 1,
        "buildingCount": 131,
        "heightQuality": {
          "height": 6,
          "levels": 2,
          "estimated": 122,
          "podium": 1
        },
        "proxy": "ready",
        "realityMesh": "missing",
        "terrain": "flat_proxy"
      },
      "geometry": {
        "type": "Polygon",
        "coordinates": [
          [
            [
              106.6978,
              10.7771
            ],
            [
              106.700525,
              10.7771
            ],
            [
              106.700525,
              10.7803
            ],
            [
              106.6978,
              10.7803
            ],
            [
              106.6978,
              10.7771
            ]
          ]
        ]
      }
    },
    {
      "type": "Feature",
      "properties": {
        "id": "rp-r4c2",
        "row": 4,
        "col": 2,
        "buildingCount": 106,
        "heightQuality": {
          "height": 3,
          "levels": 5,
          "estimated": 97,
          "podium": 1
        },
        "proxy": "ready",
        "realityMesh": "missing",
        "terrain": "flat_proxy"
      },
      "geometry": {
        "type": "Polygon",
        "coordinates": [
          [
            [
              106.700525,
              10.7771
            ],
            [
              106.70325,
              10.7771
            ],
            [
              106.70325,
              10.7803
            ],
            [
              106.700525,
              10.7803
            ],
            [
              106.700525,
              10.7771
            ]
          ]
        ]
      }
    },
    {
      "type": "Feature",
      "properties": {
        "id": "rp-r4c3",
        "row": 4,
        "col": 3,
        "buildingCount": 157,
        "heightQuality": {
          "height": 1,
          "levels": 0,
          "estimated": 156,
          "podium": 0
        },
        "proxy": "ready",
        "realityMesh": "missing",
        "terrain": "flat_proxy"
      },
      "geometry": {
        "type": "Polygon",
        "coordinates": [
          [
            [
              106.70325,
              10.7771
            ],
            [
              106.705975,
              10.7771
            ],
            [
              106.705975,
              10.7803
            ],
            [
              106.70325,
              10.7803
            ],
            [
              106.70325,
              10.7771
            ]
          ]
        ]
      }
    },
    {
      "type": "Feature",
      "properties": {
        "id": "rp-r4c4",
        "row": 4,
        "col": 4,
        "buildingCount": 54,
        "heightQuality": {
          "height": 5,
          "levels": 4,
          "estimated": 43,
          "podium": 2
        },
        "proxy": "ready",
        "realityMesh": "missing",
        "terrain": "flat_proxy"
      },
      "geometry": {
        "type": "Polygon",
        "coordinates": [
          [
            [
              106.705975,
              10.7771
            ],
            [
              106.7087,
              10.7771
            ],
            [
              106.7087,
              10.7803
            ],
            [
              106.705975,
              10.7803
            ],
            [
              106.705975,
              10.7771
            ]
          ]
        ]
      }
    }
  ]
}