{
  "type": "FeatureCollection",
  "name": "osm_gialoc_fixture",
  "features": [
    {
      "type": "Feature",
      "properties": {
        "source": "fixture",
        "highway": "residential"
      },
      "geometry": {
        "type": "LineString",
        "coordinates": [
          [
            106.15,
            11.05
          ],
          [
            106.16,
            11.055
          ]
        ]
      }
    },
    {
      "type": "Feature",
      "properties": {
        "source": "fixture",
        "building": "yes"
      },
      "geometry": {
        "type": "Polygon",
        "coordinates": [
          [
            [
              106.151,
              11.051
            ],
            [
              106.1514,
              11.051
            ],
            [
              106.1514,
              11.0514
            ],
            [
              106.151,
              11.0514
            ],
            [
              106.151,
              11.051
            ]
          ]
        ]
      }
    }
  ]
}
